#dP2018  5 13  0  0  0.00000000      96 __u+U ITR00 FIT  IAC
## 2001      0.00000000   900.00000000 58251 0.0000000000000
+   86   C01C02C03C04C05C06C07C08C09C10C11C12C13C14E01E02E03
+        E04E05E07E08E09E12E14E18E19E24E26E30G01G02G03G04G05
+        G06G07G08G09G10G11G12G13G14G15G16G17G18G19G20G21G22
+        G23G24G25G26G27G28G29G30G31G32J01J02J03R01R02R03R04
+        R07R08R09R10R11R13R14R15R16R17R18R19R20R21R22R23R24
+        R26  0  0  0  0  0  0  0  0  0  0  0  0  0  0  0  0
++         0  0  0  0  0  0  0  0  0  0  0  0  0  0  0  0  0
++         0  0  0  0  0  0  0  0  0  0  0  0  0  0  0  0  0
++         0  0  0  0  0  0  0  0  0  0  0  0  0  0  0  0  0
++         0  0  0  0  0  0  0  0  0  0  0  0  0  0  0  0  0
++         0  0  0  0  0  0  0  0  0  0  0  0  0  0  0  0  0
++         0  0  0  0  0  0  0  0  0  0  0  0  0  0  0  0  0
%c M  cc GPS ccc cccc cccc cccc cccc ccccc ccccc ccccc ccccc
%c cc cc ccc ccc cccc cccc cccc cccc ccccc ccccc ccccc ccccc
%f  0.0000000  0.000000000  0.00000000000  0.000000000000000
%f  0.0000000  0.000000000  0.00000000000  0.000000000000000
%i    0    0    0    0      0      0      0      0         0
%i    0    0    0    0      0      0      0      0         0
/*                                                          
/*   RSA / INFORMATION & ANALYSIS CENTER (IAC) OF MCC       
/*   ULTRA-RAPID DETERMINATION                              
/* PCV:IGS14_1992 OL/AL:FES2004  NONE     YN ORB:CoN CLK:CoN
*  2018 05 13 22 15  0.00000000
PC01 -32335.466086  27081.487367   -266.492743   -302.303077
PC02   4434.788832  41925.627590   -617.574819    537.414663
PC03 -14735.136907  39469.024583   -843.040648   -361.734868
PC04 -39620.381763  14401.027859   -414.986473   -259.030377
PC05  21843.144639  36050.210343   -631.129107    426.473420
PC06 -22913.944263  24959.997398  25161.308830     18.505654
PC07 -15823.574575  38113.750043   9834.408816    150.997260
PC08  -8011.930372  22222.484124 -34823.987531    337.177233
PC09  -6227.402309  25577.773021  33047.908339   -132.531421
PC10  -5225.643513  41810.370408  -4290.611302   -229.556889
PC11  24955.965630   -660.013855  12454.306417   -506.648864
PC12  24493.724313  11793.269409  -6048.717974    442.224722
PC13   4979.302204  30864.375865 -28158.408028   -330.094780
PC14  23122.278485  -9913.546270  12197.320437    308.290917
PE01  -8159.031867 -22802.542707  17008.713960   -343.951289
PE02   8182.732286  22781.244021 -17039.580737     13.442726
PE03  12912.870111  12721.962089  23407.839068    -31.726102
PE04 -26812.836599   1352.398143 -12450.063111    -33.634477
PE05  -8593.792121  19374.231472  20670.282575    266.068088
PE07  25036.903161 -14666.527227  -5825.886371     33.603107
PE08  26761.782674  -1646.922170  12543.211885   6585.394561
PE09 -24924.631264  14876.524505   5840.710936   6792.967295
PE12 -25477.394361  -9448.202750 -11702.431392   4150.053390
PE14  26004.479183  -2771.239714   6479.215229   6583.567900
PE18 -19251.616516  13643.967765 -19143.211187   6210.810964
PE19 -11026.675316 -13591.493133 -23860.838582     22.265079
PE24 -14376.582309  18707.829484  17850.920348   6708.451997
PE26  -2328.576768 -20157.810272  21552.256949   5941.387844
PE30  15994.334662   2853.867609 -24756.186872   5843.146579
PG01  17572.529798   5264.408760  19172.180163    -47.625960
PG02 -14451.643912 -22384.135277  -1067.871720    116.359844
PG03  18469.098116  -5449.423327  18250.716557     69.783966
PG04  -5962.293401  23089.480809 -11636.185532     60.185512
PG05  -8337.324375 -14779.030804 -20484.566020     -8.004532
PG06  -4451.498226 -23873.983634  10755.675237    403.579805
PG07  10853.289479 -11366.163587 -21134.184190    192.306027
PG08  25216.480525   5221.892987  -6769.814462   -101.151440
PG09  21274.653813  -8910.061189 -13211.496361    513.670251
PG10  -9761.226530  23846.759677   6136.245121    184.619595
PG11  22629.085039   5676.730456  11996.192275   -736.319236
PG12 -17260.695417   1515.633203  19878.245878    333.901754
PG13 -19133.692247 -12468.882260 -13667.828947    -94.482294
PG14   5950.482657  15475.815725  21079.944841    -96.860128
PG15 -25931.715631  -3244.274894  -5991.027730   -354.262155
PG16   6136.728375  15055.812157 -21062.703785     24.894731
PG17   4662.242686 -14435.389444  22176.152575    -98.314495
PG18  18672.932091  13356.192019  13055.901496      8.679970
PG19  -3354.065731 -14914.082262  21405.106624   -436.581743
PG20 -17313.589032  16941.916673 -10967.220429    508.096695
PG21  -7320.131513  15406.423761 -19566.766141   -395.452720
PG22  16051.574826   3768.554453  21069.896986   -390.639728
PG23  26766.282892   -169.464300  -1009.407229   -217.108018
PG24 -18939.138711  -8219.020285  16745.350971    -49.717956
PG25 -18485.822070  15157.404002  11133.837619   -584.620831
PG26  -1335.549364  22151.463356 -14504.893297   -150.322558
PG27  16419.655599  12122.539045 -17214.501291    369.119425
PG28  13306.405381 -22679.437819   4526.209510    714.918789
PG29 -23448.639632   5293.102941 -11299.136521    450.476672
PG30   4244.673603 -19909.978769 -16969.823110     74.463357
PG31   4844.839255  24232.322277   9187.117642    121.866932
PG32  -5238.846392  14907.110282  21374.480552   -509.823866
PJ01 -26587.532342  32414.876684    -62.834658   -263.100361
PJ02 -24474.831424  25166.884466  27850.419420    -22.727454
PJ03 -33862.780484  17558.492375 -13280.959903    -15.229863
PR01  12516.785966 -16633.417183 -14722.773422     26.189960
PR02  -6013.224018  -9101.550271 -23014.058576    309.603994
PR03 -19487.137764   3222.331098 -16071.900875    132.116145
PR04 -21369.510648  13899.238780    676.088478    260.819551
PR07  19731.598026  -3489.509798  15845.369679    -37.500736
PR08  21610.221574 -13554.842780    105.442453     23.199654
PR09   6374.580041  21636.195479 -11968.993094     28.367252
PR10  10493.566166   6166.940346 -22454.844503     24.342118
PR11   8984.874669 -13544.982361 -19633.887622    -28.733104
PR13  -6695.144649 -21363.996652  12193.859163    -10.385174
PR14 -10738.976331  -6249.684350  22281.065203     27.212708
PR15  -9662.788981   9549.469422  21568.103423    -10.129093
PR16  -1785.743366  24599.495451   6257.086607     92.460611
PR17 -23060.498347  -9680.059956  -5080.004092    132.226986
PR18 -16706.799473   1009.088343 -19208.767096    195.457317
PR19  -1121.341998  11214.845054 -22883.694826    -52.349641
PR20  16211.876188  15444.914158 -12266.661679   -337.856648
PR21  23040.720751   9484.089626   5425.451730     16.627843
PR22  15386.476323  -2164.756644  20277.489111    -42.645513
PR23  -2847.116474 -12796.465378  21871.785693    153.460399
PR24 -17055.523342 -15074.000841  11465.564162   -166.254227
PR26  15969.670107  15167.074756 -12842.436915     19.343927
EOF
